[{"OBJECT_NAME":"HULIANWANG DIGUI-01","OBJECT_ID":"2024-240A","EPOCH":"2026-03-07T14:42:08.838720","MEAN_MOTION":13.24420744,"ECCENTRICITY":0.00019604,"INCLINATION":86.5034,"RA_OF_ASC_NODE":17.4818,"ARG_OF_PERICENTER":85.0479,"MEAN_ANOMALY":275.0879,"EPHEMERIS_TYPE":0,"CLASSIFICATION_TYPE":"U","NORAD_CAT_ID":62323,"ELEMENT_SET_NO":999,"REV_AT_EPOCH":5919,"BSTAR":6.6116049e-5,"MEAN_MOTION_DOT":4.3e-7,"MEAN_MOTION_DDOT":0},{"OBJECT_NAME":"HULIANWANG DIGUI-02","OBJECT_ID":"2024-240B","EPOCH":"2026-03-07T14:52:53.256576","MEAN_MOTION":13.2442233,"ECCENTRICITY":0.00018947,"INCLINATION":86.5063,"RA_OF_ASC_NODE":17.6099,"ARG_OF_PERICENTER":88.9779,"MEAN_ANOMALY":271.1572,"EPHEMERIS_TYPE":0,"CLASSIFICATION_TYPE":"U","NORAD_CAT_ID":62324,"ELEMENT_SET_NO":999,"REV_AT_EPOCH":5920,"BSTAR":7.0344512e-5,"MEAN_MOTION_DOT":4.5e-7,"MEAN_MOTION_DDOT":0},{"OBJECT_NAME":"HULIANWANG DIGUI-03","OBJECT_ID":"2024-240C","EPOCH":"2026-03-07T14:31:05.796480","MEAN_MOTION":13.24422249,"ECCENTRICITY":0.00020386,"INCLINATION":86.5017,"RA_OF_ASC_NODE":17.4035,"ARG_OF_PERICENTER":83.473,"MEAN_ANOMALY":276.6636,"EPHEMERIS_TYPE":0,"CLASSIFICATION_TYPE":"U","NORAD_CAT_ID":62325,"ELEMENT_SET_NO":999,"REV_AT_EPOCH":5919,"BSTAR":4.4140294e-5,"MEAN_MOTION_DOT":3.4e-7,"MEAN_MOTION_DDOT":0},{"OBJECT_NAME":"HULIANWANG DIGUI-04","OBJECT_ID":"2024-240D","EPOCH":"2026-03-07T14:20:15.981216","MEAN_MOTION":13.24421979,"ECCENTRICITY":0.00020738,"INCLINATION":86.5026,"RA_OF_ASC_NODE":17.4379,"ARG_OF_PERICENTER":84.2453,"MEAN_ANOMALY":275.8918,"EPHEMERIS_TYPE":0,"CLASSIFICATION_TYPE":"U","NORAD_CAT_ID":62326,"ELEMENT_SET_NO":999,"REV_AT_EPOCH":5919,"BSTAR":9.1123868e-5,"MEAN_MOTION_DOT":5.4e-7,"MEAN_MOTION_DDOT":0},{"OBJECT_NAME":"HULIANWANG DIGUI-05","OBJECT_ID":"2024-240E","EPOCH":"2026-03-07T14:09:27.556128","MEAN_MOTION":13.24421225,"ECCENTRICITY":0.00021017,"INCLINATION":86.5078,"RA_OF_ASC_NODE":17.6611,"ARG_OF_PERICENTER":83.3235,"MEAN_ANOMALY":276.8138,"EPHEMERIS_TYPE":0,"CLASSIFICATION_TYPE":"U","NORAD_CAT_ID":62327,"ELEMENT_SET_NO":999,"REV_AT_EPOCH":5919,"BSTAR":0.0001345232,"MEAN_MOTION_DOT":7.2e-7,"MEAN_MOTION_DDOT":0},{"OBJECT_NAME":"HULIANWANG DIGUI-06","OBJECT_ID":"2024-240F","EPOCH":"2026-03-07T13:47:33.160704","MEAN_MOTION":13.24423107,"ECCENTRICITY":0.00020606,"INCLINATION":86.5016,"RA_OF_ASC_NODE":17.3837,"ARG_OF_PERICENTER":87.6574,"MEAN_ANOMALY":272.4796,"EPHEMERIS_TYPE":0,"CLASSIFICATION_TYPE":"U","NORAD_CAT_ID":62328,"ELEMENT_SET_NO":999,"REV_AT_EPOCH":5919,"BSTAR":0.0001518134,"MEAN_MOTION_DOT":8.0e-7,"MEAN_MOTION_DDOT":0},{"OBJECT_NAME":"HULIANWANG DIGUI-07","OBJECT_ID":"2024-240G","EPOCH":"2026-03-07T13:36:49.067712","MEAN_MOTION":13.24421233,"ECCENTRICITY":0.00020379,"INCLINATION":86.4986,"RA_OF_ASC_NODE":17.2538,"ARG_OF_PERICENTER":86.0476,"MEAN_ANOMALY":274.0891,"EPHEMERIS_TYPE":0,"CLASSIFICATION_TYPE":"U","NORAD_CAT_ID":62329,"ELEMENT_SET_NO":999,"REV_AT_EPOCH":5919,"BSTAR":0.00014404904,"MEAN_MOTION_DOT":7.6e-7,"MEAN_MOTION_DDOT":0},{"OBJECT_NAME":"HULIANWANG DIGUI-08","OBJECT_ID":"2024-240H","EPOCH":"2026-03-07T13:58:36.283296","MEAN_MOTION":13.24421111,"ECCENTRICITY":0.0002144,"INCLINATION":86.5069,"RA_OF_ASC_NODE":17.6209,"ARG_OF_PERICENTER":84.2826,"MEAN_ANOMALY":275.8552,"EPHEMERIS_TYPE":0,"CLASSIFICATION_TYPE":"U","NORAD_CAT_ID":62330,"ELEMENT_SET_NO":999,"REV_AT_EPOCH":5919,"BSTAR":0.00014046374,"MEAN_MOTION_DOT":7.5e-7,"MEAN_MOTION_DDOT":0},{"OBJECT_NAME":"HULIANWANG DIGUI-09","OBJECT_ID":"2024-240J","EPOCH":"2026-03-07T15:14:37.282272","MEAN_MOTION":13.2442245,"ECCENTRICITY":0.00019999,"INCLINATION":86.5035,"RA_OF_ASC_NODE":17.4975,"ARG_OF_PERICENTER":88.1475,"MEAN_ANOMALY":271.9888,"EPHEMERIS_TYPE":0,"CLASSIFICATION_TYPE":"U","NORAD_CAT_ID":62331,"ELEMENT_SET_NO":999,"REV_AT_EPOCH":5919,"BSTAR":0.00010485921,"MEAN_MOTION_DOT":6.0e-7,"MEAN_MOTION_DDOT":0},{"OBJECT_NAME":"HULIANWANG DIGUI-10","OBJECT_ID":"2024-240K","EPOCH":"2026-03-07T15:03:48.132288","MEAN_MOTION":13.24421877,"ECCENTRICITY":0.00019944,"INCLINATION":86.5065,"RA_OF_ASC_NODE":17.6232,"ARG_OF_PERICENTER":90.0705,"MEAN_ANOMALY":270.0657,"EPHEMERIS_TYPE":0,"CLASSIFICATION_TYPE":"U","NORAD_CAT_ID":62332,"ELEMENT_SET_NO":999,"REV_AT_EPOCH":5919,"BSTAR":9.1608474e-5,"MEAN_MOTION_DOT":5.4e-7,"MEAN_MOTION_DDOT":0},{"OBJECT_NAME":"HULIANWANG DIGUI-11","OBJECT_ID":"2025-030A","EPOCH":"2026-03-07T14:13:27.200352","MEAN_MOTION":13.29338101,"ECCENTRICITY":7.887e-5,"INCLINATION":49.9992,"RA_OF_ASC_NODE":240.2186,"ARG_OF_PERICENTER":176.3985,"MEAN_ANOMALY":183.6893,"EPHEMERIS_TYPE":0,"CLASSIFICATION_TYPE":"U","NORAD_CAT_ID":62971,"ELEMENT_SET_NO":999,"REV_AT_EPOCH":5234,"BSTAR":9.7687551e-5,"MEAN_MOTION_DOT":-7.9e-7,"MEAN_MOTION_DDOT":0},{"OBJECT_NAME":"HULIANWANG DIGUI-12","OBJECT_ID":"2025-030B","EPOCH":"2026-03-07T14:25:18.895296","MEAN_MOTION":13.29340169,"ECCENTRICITY":9.162e-5,"INCLINATION":50.0008,"RA_OF_ASC_NODE":240.3082,"ARG_OF_PERICENTER":170.6254,"MEAN_ANOMALY":189.4636,"EPHEMERIS_TYPE":0,"CLASSIFICATION_TYPE":"U","NORAD_CAT_ID":62972,"ELEMENT_SET_NO":999,"REV_AT_EPOCH":5234,"BSTAR":9.3240511e-5,"MEAN_MOTION_DOT":-8.1e-7,"MEAN_MOTION_DDOT":0},{"OBJECT_NAME":"HULIANWANG DIGUI-13","OBJECT_ID":"2025-030C","EPOCH":"2026-03-07T14:01:22.718208","MEAN_MOTION":13.29338143,"ECCENTRICITY":7.376e-5,"INCLINATION":50.001,"RA_OF_ASC_NODE":240.2336,"ARG_OF_PERICENTER":161.8853,"MEAN_ANOMALY":198.2046,"EPHEMERIS_TYPE":0,"CLASSIFICATION_TYPE":"U","NORAD_CAT_ID":62973,"ELEMENT_SET_NO":999,"REV_AT_EPOCH":5234,"BSTAR":8.1523975e-5,"MEAN_MOTION_DOT":-8.6e-7,"MEAN_MOTION_DDOT":0},{"OBJECT_NAME":"HULIANWANG DIGUI-14","OBJECT_ID":"2025-030D","EPOCH":"2026-03-07T15:13:38.112096","MEAN_MOTION":13.29337862,"ECCENTRICITY":7.99e-5,"INCLINATION":50.0016,"RA_OF_ASC_NODE":239.8519,"ARG_OF_PERICENTER":160.8627,"MEAN_ANOMALY":199.2275,"EPHEMERIS_TYPE":0,"CLASSIFICATION_TYPE":"U","NORAD_CAT_ID":62974,"ELEMENT_SET_NO":999,"REV_AT_EPOCH":5235,"BSTAR":7.102524e-5,"MEAN_MOTION_DOT":-9.1e-7,"MEAN_MOTION_DDOT":0},{"OBJECT_NAME":"HULIANWANG DIGUI-15","OBJECT_ID":"2025-030E","EPOCH":"2026-03-07T13:49:24.022272","MEAN_MOTION":13.29338147,"ECCENTRICITY":7.364e-5,"INCLINATION":50.0011,"RA_OF_ASC_NODE":240.1928,"ARG_OF_PERICENTER":170.1977,"MEAN_ANOMALY":189.891,"EPHEMERIS_TYPE":0,"CLASSIFICATION_TYPE":"U","NORAD_CAT_ID":62975,"ELEMENT_SET_NO":999,"REV_AT_EPOCH":5234,"BSTAR":7.475524e-5,"MEAN_MOTION_DOT":-8.9e-7,"MEAN_MOTION_DDOT":0},{"OBJECT_NAME":"HULIANWANG DIGUI-16","OBJECT_ID":"2025-030F","EPOCH":"2026-03-07T13:13:16.483872","MEAN_MOTION":13.29338607,"ECCENTRICITY":8.378e-5,"INCLINATION":50.0033,"RA_OF_ASC_NODE":240.1309,"ARG_OF_PERICENTER":160.9187,"MEAN_ANOMALY":199.1717,"EPHEMERIS_TYPE":0,"CLASSIFICATION_TYPE":"U","NORAD_CAT_ID":62976,"ELEMENT_SET_NO":999,"REV_AT_EPOCH":5234,"BSTAR":7.4169736e-5,"MEAN_MOTION_DOT":-9.0e-7,"MEAN_MOTION_DDOT":0}]
