HULIANWANG DIGUI-01     
1 62323U 24240A   26066.61260230  .00000043  00000+0  66116-4 0  9998
2 62323  86.5034  17.4818 0001960  85.0479 275.0879 13.24420744 59195
HULIANWANG DIGUI-02     
1 62324U 24240B   26066.62006084  .00000045  00000+0  70345-4 0  9996
2 62324  86.5063  17.6099 0001894  88.9779 271.1572 13.24422330 59204
HULIANWANG DIGUI-03     
1 62325U 24240C   26066.60492820  .00000034  00000+0  44140-4 0  9994
2 62325  86.5017  17.4035 0002038  83.4730 276.6636 13.24422249 59198
HULIANWANG DIGUI-04     
1 62326U 24240D   26066.59740719  .00000054  00000+0  91124-4 0  9992
2 62326  86.5026  17.4379 0002073  84.2453 275.8918 13.24421979 59193
HULIANWANG DIGUI-05     
1 62327U 24240E   26066.58990227  .00000072  00000+0  13452-3 0  9990
2 62327  86.5078  17.6611 0002101  83.3235 276.8138 13.24421225 59191
HULIANWANG DIGUI-06     
1 62328U 24240F   26066.57468936  .00000080  00000+0  15181-3 0  9997
2 62328  86.5016  17.3837 0002060  87.6574 272.4796 13.24423107 59191
HULIANWANG DIGUI-07     
1 62329U 24240G   26066.56723458  .00000076  00000+0  14405-3 0  9993
2 62329  86.4986  17.2538 0002037  86.0476 274.0891 13.24421233 59194
HULIANWANG DIGUI-08     
1 62330U 24240H   26066.58236439  .00000075  00000+0  14046-3 0  9995
2 62330  86.5069  17.6209 0002144  84.2826 275.8552 13.24421111 59194
HULIANWANG DIGUI-09     
1 62331U 24240J   26066.63515373  .00000060  00000+0  10486-3 0  9997
2 62331  86.5035  17.4975 0001999  88.1475 271.9888 13.24422450 59192
HULIANWANG DIGUI-10     
1 62332U 24240K   26066.62764042  .00000054  00000+0  91608-4 0  9995
2 62332  86.5065  17.6232 0001994  90.0705 270.0657 13.24421877 59193
HULIANWANG DIGUI-11     
1 62971U 25030A   26066.59267593 -.00000079  00000+0  97688-4 0  9999
2 62971  49.9992 240.2186 0000788 176.3985 183.6893 13.29338101 52347
HULIANWANG DIGUI-12     
1 62972U 25030B   26066.60091314 -.00000081  00000+0  93241-4 0  9992
2 62972  50.0008 240.3082 0000916 170.6254 189.4636 13.29340169 52340
HULIANWANG DIGUI-13     
1 62973U 25030C   26066.58429072 -.00000086  00000+0  81524-4 0  9992
2 62973  50.0010 240.2336 0000737 161.8853 198.2046 13.29338143 52345
HULIANWANG DIGUI-14     
1 62974U 25030D   26066.63446889 -.00000091  00000+0  71025-4 0  9995
2 62974  50.0016 239.8519 0000799 160.8627 199.2275 13.29337862 52358
HULIANWANG DIGUI-15     
1 62975U 25030E   26066.57597248 -.00000089  00000+0  74755-4 0  9995
2 62975  50.0011 240.1928 0000736 170.1977 189.8910 13.29338147 52343
HULIANWANG DIGUI-16     
1 62976U 25030F   26066.55088523 -.00000090  00000+0  74170-4 0  9998
2 62976  50.0033 240.1309 0000837 160.9187 199.1717 13.29338607 52343
